[{"OBJECT_NAME":"ONEWEB-0625","OBJECT_ID":"2023-004AC","EPOCH":"2026-03-09T20:02:59.294400","MEAN_MOTION":13.17649415,"ECCENTRICITY":0.00017641,"INCLINATION":87.9151,"RA_OF_ASC_NODE":25.6036,"ARG_OF_PERICENTER":86.6046,"MEAN_ANOMALY":273.5288,"EPHEMERIS_TYPE":0,"CLASSIFICATION_TYPE":"U","NORAD_CAT_ID":55166,"ELEMENT_SET_NO":999,"REV_AT_EPOCH":15449,"BSTAR":-1.2961049e-5,"MEAN_MOTION_DOT":8.0e-8,"MEAN_MOTION_DDOT":0},{"OBJECT_NAME":"COSMOS 2499 DEB","OBJECT_ID":"2014-028AD","EPOCH":"2026-02-19T11:11:32.901792","MEAN_MOTION":12.87016688,"ECCENTRICITY":0.02094517,"INCLINATION":82.3649,"RA_OF_ASC_NODE":322.0288,"ARG_OF_PERICENTER":278.9924,"MEAN_ANOMALY":78.7529,"EPHEMERIS_TYPE":0,"CLASSIFICATION_TYPE":"U","NORAD_CAT_ID":55717,"ELEMENT_SET_NO":999,"REV_AT_EPOCH":14604,"BSTAR":0.00044971048,"MEAN_MOTION_DOT":1.33e-6,"MEAN_MOTION_DDOT":0}]
